GSAT0210 (GALILEO 13)
1 41550U 16030B   25333.02872365  .00000026  00000+0  00000+0 0  9990
2 41550  55.1566 227.1992 0001282 243.2248 116.8349  1.70473428 59254